CCSDS_OMM_VERS = 2.0
CREATION_DATE  = 
ORIGINATOR     = 

OBJECT_NAME    = STARLINK-37000
OBJECT_ID      = 2026-041Z
CENTER_NAME    = EARTH
REF_FRAME      = TEME
TIME_SYSTEM    = UTC
MEAN_ELEMENT_THEORY = SGP/SGP4

EPOCH          = 2026-03-31T05:48:28.109664
MEAN_MOTION    = 15.75326501
ECCENTRICITY   = .0000421
INCLINATION    = 53.1583
RA_OF_ASC_NODE = 314.3946
ARG_OF_PERICENTER = 54.7370
MEAN_ANOMALY   = 305.3690

EPHEMERIS_TYPE = 0
CLASSIFICATION_TYPE = U
NORAD_CAT_ID   = 68063
ELEMENT_SET_NO = 999
REV_AT_EPOCH   = 462
BSTAR          = .15969E-2
MEAN_MOTION_DOT = .252563E-2
MEAN_MOTION_DDOT = 0

CCSDS_OMM_VERS = 2.0
CREATION_DATE  = 
ORIGINATOR     = 

OBJECT_NAME    = STARLINK-36996
OBJECT_ID      = 2026-041AA
CENTER_NAME    = EARTH
REF_FRAME      = TEME
TIME_SYSTEM    = UTC
MEAN_ELEMENT_THEORY = SGP/SGP4

EPOCH          = 2026-03-31T08:18:31.142592
MEAN_MOTION    = 15.75299933
ECCENTRICITY   = .00009186
INCLINATION    = 53.1587
RA_OF_ASC_NODE = 313.6133
ARG_OF_PERICENTER = 89.7844
MEAN_ANOMALY   = 270.3282

EPHEMERIS_TYPE = 0
CLASSIFICATION_TYPE = U
NORAD_CAT_ID   = 68064
ELEMENT_SET_NO = 999
REV_AT_EPOCH   = 464
BSTAR          = .15306083E-2
MEAN_MOTION_DOT = .241446E-2
MEAN_MOTION_DDOT = 0

CCSDS_OMM_VERS = 2.0
CREATION_DATE  = 
ORIGINATOR     = 

OBJECT_NAME    = STARLINK-36836
OBJECT_ID      = 2026-041AB
CENTER_NAME    = EARTH
REF_FRAME      = TEME
TIME_SYSTEM    = UTC
MEAN_ELEMENT_THEORY = SGP/SGP4

EPOCH          = 2026-03-31T08:18:02.876832
MEAN_MOTION    = 15.75364525
ECCENTRICITY   = .00006275
INCLINATION    = 53.1580
RA_OF_ASC_NODE = 313.6110
ARG_OF_PERICENTER = 68.0403
MEAN_ANOMALY   = 292.0684

EPHEMERIS_TYPE = 0
CLASSIFICATION_TYPE = U
NORAD_CAT_ID   = 68065
ELEMENT_SET_NO = 999
REV_AT_EPOCH   = 464
BSTAR          = .24291933E-2
MEAN_MOTION_DOT = .391657E-2
MEAN_MOTION_DDOT = 0

CCSDS_OMM_VERS = 2.0
CREATION_DATE  = 
ORIGINATOR     = 

OBJECT_NAME    = STARLINK-36976
OBJECT_ID      = 2026-041AC
CENTER_NAME    = EARTH
REF_FRAME      = TEME
TIME_SYSTEM    = UTC
MEAN_ELEMENT_THEORY = SGP/SGP4

EPOCH          = 2026-03-31T01:27:26.997696
MEAN_MOTION    = 15.75465766
ECCENTRICITY   = .00011746
INCLINATION    = 53.1565
RA_OF_ASC_NODE = 315.4003
ARG_OF_PERICENTER = 284.2660
MEAN_ANOMALY   = 75.8230

EPHEMERIS_TYPE = 0
CLASSIFICATION_TYPE = U
NORAD_CAT_ID   = 68066
ELEMENT_SET_NO = 999
REV_AT_EPOCH   = 459
BSTAR          = .26243596E-2
MEAN_MOTION_DOT = .426828E-2
MEAN_MOTION_DDOT = 0

CCSDS_OMM_VERS = 2.0
CREATION_DATE  = 
ORIGINATOR     = 

OBJECT_NAME    = STARLINK-36929
OBJECT_ID      = 2026-041AD
CENTER_NAME    = EARTH
REF_FRAME      = TEME
TIME_SYSTEM    = UTC
MEAN_ELEMENT_THEORY = SGP/SGP4

EPOCH          = 2026-03-31T07:38:58.932096
MEAN_MOTION    = 15.75349134
ECCENTRICITY   = .0000525
INCLINATION    = 53.1571
RA_OF_ASC_NODE = 314.1671
ARG_OF_PERICENTER = 16.8891
MEAN_ANOMALY   = 343.2147

EPHEMERIS_TYPE = 0
CLASSIFICATION_TYPE = U
NORAD_CAT_ID   = 68067
ELEMENT_SET_NO = 999
REV_AT_EPOCH   = 463
BSTAR          = .23658362E-2
MEAN_MOTION_DOT = .38067E-2
MEAN_MOTION_DDOT = 0

CCSDS_OMM_VERS = 2.0
CREATION_DATE  = 
ORIGINATOR     = 

OBJECT_NAME    = STARLINK-36990
OBJECT_ID      = 2026-041AE
CENTER_NAME    = EARTH
REF_FRAME      = TEME
TIME_SYSTEM    = UTC
MEAN_ELEMENT_THEORY = SGP/SGP4

EPOCH          = 2026-03-31T07:47:20.102208
MEAN_MOTION    = 15.80936688
ECCENTRICITY   = .00007042
INCLINATION    = 53.1574
RA_OF_ASC_NODE = 313.4684
ARG_OF_PERICENTER = 104.6761
MEAN_ANOMALY   = 255.4340

EPHEMERIS_TYPE = 0
CLASSIFICATION_TYPE = U
NORAD_CAT_ID   = 68068
ELEMENT_SET_NO = 999
REV_AT_EPOCH   = 464
BSTAR          = .11857995E-2
MEAN_MOTION_DOT = .240688E-2
MEAN_MOTION_DDOT = 0

CCSDS_OMM_VERS = 2.0
CREATION_DATE  = 
ORIGINATOR     = 

OBJECT_NAME    = STARLINK-36766
OBJECT_ID      = 2026-042A
CENTER_NAME    = EARTH
REF_FRAME      = TEME
TIME_SYSTEM    = UTC
MEAN_ELEMENT_THEORY = SGP/SGP4

EPOCH          = 2026-03-31T14:00:01.999872
MEAN_MOTION    = 15.75262011
ECCENTRICITY   = .00011052
INCLINATION    = 53.1587
RA_OF_ASC_NODE = 85.1321
ARG_OF_PERICENTER = 71.5143
MEAN_ANOMALY   = 325.0323

EPHEMERIS_TYPE = 0
CLASSIFICATION_TYPE = U
NORAD_CAT_ID   = 68069
ELEMENT_SET_NO = 999
REV_AT_EPOCH   = 556
BSTAR          = -.21230202E-3
MEAN_MOTION_DOT = -.33088E-3
MEAN_MOTION_DDOT = 0

CCSDS_OMM_VERS = 2.0
CREATION_DATE  = 
ORIGINATOR     = 

OBJECT_NAME    = STARLINK-36823
OBJECT_ID      = 2026-042B
CENTER_NAME    = EARTH
REF_FRAME      = TEME
TIME_SYSTEM    = UTC
MEAN_ELEMENT_THEORY = SGP/SGP4

EPOCH          = 2026-03-31T12:08:55.382784
MEAN_MOTION    = 15.80942220
ECCENTRICITY   = .00010764
INCLINATION    = 53.1567
RA_OF_ASC_NODE = 85.4321
ARG_OF_PERICENTER = 127.0333
MEAN_ANOMALY   = 233.0789

EPHEMERIS_TYPE = 0
CLASSIFICATION_TYPE = U
NORAD_CAT_ID   = 68070
ELEMENT_SET_NO = 999
REV_AT_EPOCH   = 553
BSTAR          = .11204694E-2
MEAN_MOTION_DOT = .227082E-2
MEAN_MOTION_DDOT = 0

CCSDS_OMM_VERS = 2.0
CREATION_DATE  = 
ORIGINATOR     = 

OBJECT_NAME    = STARLINK-36970
OBJECT_ID      = 2026-042C
CENTER_NAME    = EARTH
REF_FRAME      = TEME
TIME_SYSTEM    = UTC
MEAN_ELEMENT_THEORY = SGP/SGP4

EPOCH          = 2026-03-31T09:36:46.495296
MEAN_MOTION    = 15.75296563
ECCENTRICITY   = .00010254
INCLINATION    = 53.1584
RA_OF_ASC_NODE = 86.2030
ARG_OF_PERICENTER = 95.9439
MEAN_ANOMALY   = 264.1698

EPHEMERIS_TYPE = 0
CLASSIFICATION_TYPE = U
NORAD_CAT_ID   = 68071
ELEMENT_SET_NO = 999
REV_AT_EPOCH   = 551
BSTAR          = .18240307E-2
MEAN_MOTION_DOT = .289472E-2
MEAN_MOTION_DDOT = 0

CCSDS_OMM_VERS = 2.0
CREATION_DATE  = 
ORIGINATOR     = 

OBJECT_NAME    = STARLINK-36972
OBJECT_ID      = 2026-042D
CENTER_NAME    = EARTH
REF_FRAME      = TEME
TIME_SYSTEM    = UTC
MEAN_ELEMENT_THEORY = SGP/SGP4

EPOCH          = 2026-03-31T12:08:15.111744
MEAN_MOTION    = 15.79326050
ECCENTRICITY   = .0000534
INCLINATION    = 53.1573
RA_OF_ASC_NODE = 85.4293
ARG_OF_PERICENTER = 153.0517
MEAN_ANOMALY   = 207.0533

EPHEMERIS_TYPE = 0
CLASSIFICATION_TYPE = U
NORAD_CAT_ID   = 68072
ELEMENT_SET_NO = 999
REV_AT_EPOCH   = 553
BSTAR          = -.51456947E-2
MEAN_MOTION_DOT = -.857363E-2
MEAN_MOTION_DDOT = 0

CCSDS_OMM_VERS = 2.0
CREATION_DATE  = 
ORIGINATOR     = 

OBJECT_NAME    = STARLINK-37074
OBJECT_ID      = 2026-042E
CENTER_NAME    = EARTH
REF_FRAME      = TEME
TIME_SYSTEM    = UTC
MEAN_ELEMENT_THEORY = SGP/SGP4

EPOCH          = 2026-03-31T14:00:01.999872
MEAN_MOTION    = 15.75404223
ECCENTRICITY   = .00007284
INCLINATION    = 53.1577
RA_OF_ASC_NODE = 85.1846
ARG_OF_PERICENTER = 116.6437
MEAN_ANOMALY   = 254.2240

EPHEMERIS_TYPE = 0
CLASSIFICATION_TYPE = U
NORAD_CAT_ID   = 68073
ELEMENT_SET_NO = 999
REV_AT_EPOCH   = 557
BSTAR          = -.21569815E-2
MEAN_MOTION_DOT = -.321333E-2
MEAN_MOTION_DDOT = 0

CCSDS_OMM_VERS = 2.0
CREATION_DATE  = 
ORIGINATOR     = 

OBJECT_NAME    = STARLINK-37045
OBJECT_ID      = 2026-042F
CENTER_NAME    = EARTH
REF_FRAME      = TEME
TIME_SYSTEM    = UTC
MEAN_ELEMENT_THEORY = SGP/SGP4

EPOCH          = 2026-03-31T09:56:23.069760
MEAN_MOTION    = 15.75287456
ECCENTRICITY   = .00012254
INCLINATION    = 53.1584
RA_OF_ASC_NODE = 86.2943
ARG_OF_PERICENTER = 85.9013
MEAN_ANOMALY   = 274.2148

EPHEMERIS_TYPE = 0
CLASSIFICATION_TYPE = U
NORAD_CAT_ID   = 68074
ELEMENT_SET_NO = 999
REV_AT_EPOCH   = 551
BSTAR          = .15645347E-2
MEAN_MOTION_DOT = .246835E-2
MEAN_MOTION_DDOT = 0

