STARLINK-37000          
1 68063U 26041Z   26090.24199201  .00252563  00000+0  15969-2 0  9995
2 68063  53.1583 314.3946 0000421  54.7370 305.3690 15.75326501  4626
STARLINK-36996          
1 68064U 26041AA  26090.34619378  .00241446  00000+0  15306-2 0  9992
2 68064  53.1587 313.6133 0000918  89.7844 270.3282 15.75299933  4644
STARLINK-36836          
1 68065U 26041AB  26090.34586663  .00391657  00000+0  24292-2 0  9997
2 68065  53.1580 313.6110 0000627  68.0403 292.0684 15.75364525  4648
STARLINK-36976          
1 68066U 26041AC  26090.06072914  .00426828  00000+0  26244-2 0  9994
2 68066  53.1565 315.4003 0001174 284.2660  75.8230 15.75465766  4595
STARLINK-36929          
1 68067U 26041AD  26090.31873764  .00380670  00000+0  23658-2 0  9995
2 68067  53.1571 314.1671 0000525  16.8891 343.2147 15.75349134  4638
STARLINK-36990          
1 68068U 26041AE  26090.32453822  .00240688  00000+0  11858-2 0  9999
2 68068  53.1574 313.4684 0000704 104.6761 255.4340 15.80936688  4641
STARLINK-36766          
1 68069U 26042A   26090.58335648 -.00033088  00000+0 -21230-3 0  9996
2 68069  53.1587  85.1321 0001105  71.5143 325.0323 15.75262011  5562
STARLINK-36823          
1 68070U 26042B   26090.50619656  .00227082  00000+0  11205-2 0  9991
2 68070  53.1567  85.4321 0001076 127.0333 233.0789 15.80942220  5534
STARLINK-36970          
1 68071U 26042C   26090.40053814  .00289472  00000+0  18240-2 0  9996
2 68071  53.1584  86.2030 0001025  95.9439 264.1698 15.75296563  5512
STARLINK-36972          
1 68072U 26042D   26090.50573046 -.00857363  00000+0 -51457-2 0  9991
2 68072  53.1573  85.4293 0000534 153.0517 207.0533 15.79326050  5535
STARLINK-37074          
1 68073U 26042E   26090.58335648 -.00321333  00000+0 -21570-2 0  9990
2 68073  53.1577  85.1846 0000728 116.6437 254.2240 15.75404223  5570
STARLINK-37045          
1 68074U 26042F   26090.41415590  .00246835  00000+0  15645-2 0  9995
2 68074  53.1584  86.2943 0001225  85.9013 274.2148 15.75287456  5510
